<?xml version="1.0" encoding="US-ASCII" standalone="yes"?>
<q:quakeml xmlns:q="http://quakeml.org/xmlns/quakeml/1.2" xmlns="http://quakeml.org/xmlns/bed/1.2" xmlns:ingv="http://webservices.ingv.it/fdsnws/event/1">
  <eventParameters publicID="smi:webservices.ingv.it/fdsnws/event/1/query">
    <event publicID="smi:webservices.ingv.it/fdsnws/event/1/query?eventId=7073641">
      <type>earthquake</type>
      <description>
        <type>region name</type>
        <text>1 km W Accumoli (RI)</text>
      </description>
      <preferredMagnitudeID>smi:webservices.ingv.it/fdsnws/event/1/query?magnitudeId=31549261</preferredMagnitudeID>
      <preferredOriginID>smi:webservices.ingv.it/fdsnws/event/1/query?originId=27629391</preferredOriginID>
      <preferredFocalMechanismID>smi:webservices.ingv.it/fdsnws/event/1/query?focalMechanismId=7631</preferredFocalMechanismID>
      <creationInfo>
        <agencyID>INGV</agencyID>
        <author>hew1_mole#MOD_EQASSEMBLE</author>
        <creationTime>2016-08-24T01:36:52</creationTime>
        <ingv:id_locator>100377420</ingv:id_locator>
      </creationInfo>
      <origin publicID="smi:webservices.ingv.it/fdsnws/event/1/query?originId=26951261">
        <evaluationMode>automatic</evaluationMode>
        <type>hypocenter</type>
        <time>
          <value>2016-08-24T01:36:32.440000</value>
        </time>
        <latitude>
          <value>42.688332</value>
        </latitude>
        <longitude>
          <value>13.1815</value>
        </longitude>
        <depth>
          <value>1310</value>
        </depth>
        <depthType>from location</depthType>
        <originUncertainty>
          <preferredDescription>uncertainty ellipse</preferredDescription>
          <horizontalUncertainty>1060.0</horizontalUncertainty>
          <minHorizontalUncertainty>51</minHorizontalUncertainty>
          <maxHorizontalUncertainty>1060</maxHorizontalUncertainty>
          <azimuthMaxHorizontalUncertainty>244</azimuthMaxHorizontalUncertainty>
          <confidenceLevel>68</confidenceLevel>
        </originUncertainty>
        <quality>
          <azimuthalGap>21</azimuthalGap>
          <associatedPhaseCount>203</associatedPhaseCount>
          <usedPhaseCount>203</usedPhaseCount>
          <standardError>1.45</standardError>
          <minimumDistance>0.13490</minimumDistance>
          <maximumDistance>3.36436</maximumDistance>
          <associatedStationCount>184</associatedStationCount>
          <usedStationCount>184</usedStationCount>
        </quality>
        <evaluationStatus>preliminary</evaluationStatus>
        <methodID>smi:webservices.ingv.it/fdsnws/event/1/query?methodId=3</methodID>
        <earthModelID>smi:webservices.ingv.it/fdsnws/event/1/query?earthModelId=9</earthModelID>
        <creationInfo>
          <agencyID>INGV</agencyID>
          <author>hew1_mole#MOD_EQASSEMBLE</author>
          <version>2</version>
          <creationTime>2016-08-24T01:37:54</creationTime>
        </creationInfo>
        <arrival publicID="smi:webservices.ingv.it/fdsnws/event/1/query?arrivalId=504048981">
          <phase>Pn</phase>
          <azimuth>5</azimuth>
          <distance>3.3131</distance>
          <timeResidual>1.81</timeResidual>
          <timeWeight>0.93</timeWeight>
          <pickID>smi:webservices.ingv.it/fdsnws/event/1/query?pickId=133520081</pickID>
          <earthModelID>smi:webservices.ingv.it/fdsnws/event/1/query?earthModelId=9</earthModelID>
          <takeoffAngle>
            <value>38</value>
          </takeoffAngle>
          <creationInfo>
            <agencyID>INGV </agencyID>
            <author>hew1_mole#MOD_EQASSEMBLE</author>
            <creationTime>2016-08-24T01:37:56</creationTime>
          </creationInfo>
        </arrival>
        <arrival publicID="smi:webservices.ingv.it/fdsnws/event/1/query?arrivalId=504049091">
          <phase>Pn</phase>
          <azimuth>132</azimuth>
          <distance>3.3581</distance>
          <timeResidual>1.16</timeResidual>
          <timeWeight>0.91</timeWeight>
          <pickID>smi:webservices.ingv.it/fdsnws/event/1/query?pickId=133520191</pickID>
          <earthModelID>smi:webservices.ingv.it/fdsnws/event/1/query?earthModelId=9</earthModelID>
          <takeoffAngle>
            <value>38</value>
          </takeoffAngle>
          <creationInfo>
            <agencyID>INGV </agencyID>
            <author>hew1_mole#MOD_EQASSEMBLE</author>
            <creationTime>2016-08-24T01:37:56</creationTime>
          </creationInfo>
        </arrival>
        <arrival publicID="smi:webservices.ingv.it/fdsnws/event/1/query?arrivalId=504049111">
          <phase>Pn</phase>
          <azimuth>259</azimuth>
          <distance>3.3644</distance>
          <timeResidual>1.02</timeResidual>
          <timeWeight>0.91</timeWeight>
          <pickID>smi:webservices.ingv.it/fdsnws/event/1/query?pickId=133520211</pickID>
          <earthModelID>smi:webservices.ingv.it/fdsnws/event/1/query?earthModelId=9</earthModelID>
          <takeoffAngle>
            <value>38</value>
          </takeoffAngle>
          <creationInfo>
            <agencyID>INGV </agencyID>
            <author>hew1_mole#MOD_EQASSEMBLE</author>
            <creationTime>2016-08-24T01:37:56</creationTime>
          </creationInfo>
        </arrival>
        <arrival publicID="smi:webservices.ingv.it/fdsnws/event/1/query?arrivalId=504049071">
          <phase>Pn</phase>
          <azimuth>142</azimuth>
          <distance>3.3428</distance>
          <timeResidual>0.57</timeResidual>
          <timeWeight>0.92</timeWeight>
          <pickID>smi:webservices.ingv.it/fdsnws/event/1/query?pickId=133520171</pickID>
          <earthModelID>smi:webservices.ingv.it/fdsnws/event/1/query?earthModelId=9</earthModelID>
          <takeoffAngle>
            <value>38</value>
          </takeoffAngle>
          <creationInfo>
            <agencyID>INGV </agencyID>
            <author>hew1_mole#MOD_EQASSEMBLE</author>
            <creationTime>2016-08-24T01:37:56</creationTime>
          </creationInfo>
        </arrival>
        <arrival publicID="smi:webservices.ingv.it/fdsnws/event/1/query?arrivalId=504049021">
          <phase>Pn</phase>
          <azimuth>126</azimuth>
          <distance>3.3338</distance>
          <timeResidual>0.51</timeResidual>
          <timeWeight>0.92</timeWeight>
          <pickID>smi:webservices.ingv.it/fdsnws/event/1/query?pickId=133520121</pickID>
          <earthModelID>smi:webservices.ingv.it/fdsnws/event/1/query?earthModelId=9</earthModelID>
          <takeoffAngle>
            <value>38</value>
          </takeoffAngle>
          <creationInfo>
            <agencyID>INGV </agencyID>
            <author>hew1_mole#MOD_EQASSEMBLE</author>
            <creationTime>2016-08-24T01:37:56</creationTime>
          </creationInfo>
        </arrival>
        <arrival publicID="smi:webservices.ingv.it/fdsnws/event/1/query?arrivalId=504048961">
          <phase>Pn</phase>
          <azimuth>137</azimuth>
          <distance>3.3041</distance>
          <timeResidual>1.2</timeResidual>
          <timeWeight>0.93</timeWeight>
          <pickID>smi:webservices.ingv.it/fdsnws/event/1/query?pickId=133520061</pickID>
          <earthModelID>smi:webservices.ingv.it/fdsnws/event/1/query?earthModelId=9</earthModelID>
          <takeoffAngle>
            <value>38</value>
          </takeoffAngle>
          <creationInfo>
            <agencyID>INGV </agencyID>
            <author>hew1_mole#MOD_EQASSEMBLE</author>
            <creationTime>2016-08-24T01:37:56</creationTime>
          </creationInfo>
        </arrival>
        <arrival publicID="smi:webservices.ingv.it/fdsnws/event/1/query?arrivalId=504048731">
          <phase>Pg</phase>
          <azimuth>332</azimuth>
          <distance>2.9920</distance>
          <timeResidual>4.29</timeResidual>
          <timeWeight>0.29</timeWeight>
          <pickID>smi:webservices.ingv.it/fdsnws/event/1/query?pickId=133519831</pickID>
          <earthModelID>smi:webservices.ingv.it/fdsnws/event/1/query?earthModelId=9</earthModelID>
          <takeoffAngle>
            <value>38</value>
          </takeoffAngle>
          <creationInfo>
            <agencyID>INGV </agencyID>
            <author>hew1_mole#MOD_EQASSEMBLE</author>
            <creationTime>2016-08-24T01:37:56</creationTime>
          </creationInfo>
        </arrival>
        <arrival publicID="smi:webservices.ingv.it/fdsnws/event/1/query?arrivalId=504049041">
          <phase>Pn</phase>
          <azimuth>344</azimuth>
          <distance>3.3401</distance>
          <timeResidual>-0.35</timeResidual>
          <timeWeight>0.69</timeWeight>
          <pickID>smi:webservices.ingv.it/fdsnws/event/1/query?pickId=133520141</pickID>
          <earthModelID>smi:webservices.ingv.it/fdsnws/event/1/query?earthModelId=9</earthModelID>
          <takeoffAngle>
            <value>38</value>
          </takeoffAngle>
          <creationInfo>
            <agencyID>INGV </agencyID>
            <author>hew1_mole#MOD_EQASSEMBLE</author>
            <creationTime>2016-08-24T01:37:56</creationTime>
          </creationInfo>
        </arrival>
        <arrival publicID="smi:webservices.ingv.it/fdsnws/event/1/query?arrivalId=504048941">
          <phase>Pn</phase>
          <azimuth>140</azimuth>
          <distance>3.2160</distance>
          <timeResidual>0.91</timeResidual>
          <timeWeight>0.97</timeWeight>
          <pickID>smi:webservices.ingv.it/fdsnws/event/1/query?pickId=133520041</pickID>
          <earthModelID>smi:webservices.ingv.it/fdsnws/event/1/query?earthModelId=9</earthModelID>
          <takeoffAngle>
            <value>38</value>
          </takeoffAngle>
          <creationInfo>
            <agencyID>INGV </agencyID>
            <author>hew1_mole#MOD_EQASSEMBLE</author>
            <creationTime>2016-08-24T01:37:56</creationTime>
          </creationInfo>
        </arrival>
        <arrival publicID="smi:webservices.ingv.it/fdsnws/event/1/query?arrivalId=504048751">
          <phase>Pg</phase>
          <azimuth>326</azimuth>
          <distance>3.0055</distance>
          <timeResidual>3.69</timeResidual>
          <timeWeight>0.2</timeWeight>
          <pickID>smi:webservices.ingv.it/fdsnws/event/1/query?pickId=133519851</pickID>
          <earthModelID>smi:webservices.ingv.it/fdsnws/event/1/query?earthModelId=9</earthModelID>
          <takeoffAngle>
            <value>38</value>
          </takeoffAngle>
          <creationInfo>
            <agencyID>INGV </agencyID>
            <author>hew1_mole#MOD_EQASSEMBLE</author>
            <creationTime>2016-08-24T01:37:56</creationTime>
          </creationInfo>
        </arrival>
        <arrival publicID="smi:webservices.ingv.it/fdsnws/event/1/query?arrivalId=504048911">
          <phase>Pn</phase>
          <azimuth>129</azimuth>
          <distance>3.2097</distance>
          <timeResidual>0.84</timeResidual>
          <timeWeight>0.98</timeWeight>
          <pickID>smi:webservices.ingv.it/fdsnws/event/1/query?pickId=133520011</pickID>
          <earthModelID>smi:webservices.ingv.it/fdsnws/event/1/query?earthModelId=9</earthModelID>
          <takeoffAngle>
            <value>38</value>
          </takeoffAngle>
          <creationInfo>
            <agencyID>INGV </agencyID>
            <author>hew1_mole#MOD_EQASSEMBLE</author>
            <creationTime>2016-08-24T01:37:56</creationTime>
          </creationInfo>
        </arrival>
        <arrival publicID="smi:webservices.ingv.it/fdsnws/event/1/query?arrivalId=504048831">
          <phase>Pn</phase>
          <azimuth>144</azimuth>
          <distance>3.1099</distance>
          <timeResidual>0.46</timeResidual>
          <timeWeight>1.02</timeWeight>
          <pickID>smi:webservices.ingv.it/fdsnws/event/1/query?pickId=133519931</pickID>
          <earthModelID>smi:webservices.ingv.it/fdsnws/event/1/query?earthModelId=9</earthModelID>
          <takeoffAngle>
            <value>38</value>
          </takeoffAngle>
          <creationInfo>
            <agencyID>INGV </agencyID>
            <author>hew1_mole#MOD_EQASSEMBLE</author>
            <creationTime>2016-08-24T01:37:56</creationTime>
          </creationInfo>
        </arrival>
        <arrival publicID="smi:webservices.ingv.it/fdsnws/event/1/query?arrivalId=504048791">
          <phase>Pn</phase>
          <azimuth>139</azimuth>
          <distance>3.0730</distance>
          <timeResidual>1.08</timeResidual>
          <timeWeight>1.04</timeWeight>
          <pickID>smi:webservices.ingv.it/fdsnws/event/1/query?pickId=133519891</pickID>
          <earthModelID>smi:webservices.ingv.it/fdsnws/event/1/query?earthModelId=9</earthModelID>
          <takeoffAngle>
            <value>38</value>
          </takeoffAngle>
          <creationInfo>
            <agencyID>INGV </agencyID>
            <author>hew1_mole#MOD_EQASSEMBLE</author>
            <creationTime>2016-08-24T01:37:56</creationTime>
          </creationInfo>
        </arrival>
        <arrival publicID="smi:webservices.ingv.it/fdsnws/event/1/query?arrivalId=504049001">
          <phase>Pn</phase>
          <azimuth>85</azimuth>
          <distance>3.3311</distance>
          <timeResidual>-1.9</timeResidual>
          <timeWeight>0.92</timeWeight>
          <pickID>smi:webservices.ingv.it/fdsnws/event/1/query?pickId=133520101</pickID>
          <earthModelID>smi:webservices.ingv.it/fdsnws/event/1/query?earthModelId=9</earthModelID>
          <takeoffAngle>
            <value>38</value>
          </takeoffAngle>
          <creationInfo>
            <agencyID>INGV </agencyID>
            <author>hew1_mole#MOD_EQASSEMBLE</author>
            <creationTime>2016-08-24T01:37:56</creationTime>
          </creationInfo>
        </arrival>
        <arrival publicID="smi:webservices.ingv.it/fdsnws/event/1/query?arrivalId=504048811">
          <phase>Pn</phase>
          <azimuth>140</azimuth>
          <distance>3.0955</distance>
          <timeResidual>1.02</timeResidual>
          <timeWeight>1.03</timeWeight>
          <pickID>smi:webservices.ingv.it/fdsnws/event/1/query?pickId=133519911</pickID>
          <earthModelID>smi:webservices.ingv.it/fdsnws/event/1/query?earthModelId=9</earthModelID>
          <takeoffAngle>
            <value>38</value>
          </takeoffAngle>
          <creationInfo>
            <agencyID>INGV </agencyID>
            <author>hew1_mole#MOD_EQASSEMBLE</author>
            <creationTime>2016-08-24T01:37:56</creationTime>
          </creationInfo>
        </arrival>
        <arrival publicID="smi:webservices.ingv.it/fdsnws/event/1/query?arrivalId=504048871">
          <phase>Pn</phase>
          <azimuth>303</azimuth>
          <distance>3.1233</distance>
          <timeResidual>0.15</timeResidual>
          <timeWeight>1.02</timeWeight>
          <pickID>smi:webservices.ingv.it/fdsnws/event/1/query?pickId=133519971</pickID>
          <earthModelID>smi:webservices.ingv.it/fdsnws/event/1/query?earthModelId=9</earthModelID>
          <takeoffAngle>
            <value>38</value>
          </takeoffAngle>
          <creationInfo>
            <agencyID>INGV </agencyID>
            <author>hew1_mole#MOD_EQASSEMBLE</author>
            <creationTime>2016-08-24T01:37:56</creationTime>
          </creationInfo>
        </arrival>
        <arrival publicID="smi:webservices.ingv.it/fdsnws/event/1/query?arrivalId=504048891">
          <phase>Pn</phase>
          <azimuth>27</azimuth>
          <distance>3.1845</distance>
          <timeResidual>-1</timeResidual>
          <timeWeight>0.25</timeWeight>
          <pickID>smi:webservices.ingv.it/fdsnws/event/1/query?pickId=133519991</pickID>
          <earthModelID>smi:webservices.ingv.it/fdsnws/event/1/query?earthModelId=9</earthModelID>
          <takeoffAngle>
            <value>38</value>
          </takeoffAngle>
          <creationInfo>
            <agencyID>INGV </agencyID>
            <author>hew1_mole#MOD_EQASSEMBLE</author>
            <creationTime>2016-08-24T01:37:56</creationTime>
          </creationInfo>
        </arrival>
        <arrival publicID="smi:webservices.ingv.it/fdsnws/event/1/query?arrivalId=504048711">
          <phase>Pn</phase>
          <azimuth>332</azimuth>
          <distance>2.9920</distance>
          <timeResidual>1.3</timeResidual>
          <timeWeight>0.81</timeWeight>
          <pickID>smi:webservices.ingv.it/fdsnws/event/1/query?pickId=133519811</pickID>
          <earthModelID>smi:webservices.ingv.it/fdsnws/event/1/query?earthModelId=9</earthModelID>
          <takeoffAngle>
            <value>38</value>
          </takeoffAngle>
          <creationInfo>
            <agencyID>INGV </agencyID>
            <author>hew1_mole#MOD_EQASSEMBLE</author>
            <creationTime>2016-08-24T01:37:56</creationTime>
          </creationInfo>
        </arrival>
        <arrival publicID="smi:webservices.ingv.it/fdsnws/event/1/query?arrivalId=504048851">
          <phase>Pn</phase>
          <azimuth>123</azimuth>
          <distance>3.1170</distance>
          <timeResidual>0.05</timeResidual>
          <timeWeight>1.02</timeWeight>
          <pickID>smi:webservices.ingv.it/fdsnws/event/1/query?pickId=133519951</pickID>
          <earthModelID>smi:webservices.ingv.it/fdsnws/event/1/query?earthModelId=9</earthModelID>
          <takeoffAngle>
            <value>38</value>
          </takeoffAngle>
          <creationInfo>
            <agencyID>INGV </agencyID>
            <author>hew1_mole#MOD_EQASSEMBLE</author>
            <creationTime>2016-08-24T01:37:56</creationTime>
          </creationInfo>
        </arrival>
        <arrival publicID="smi:webservices.ingv.it/fdsnws/event/1/query?arrivalId=504048631">
          <phase>Pg</phase>
          <azimuth>327</azimuth>
          <distance>2.8715</distance>
          <timeResidual>3.45</timeResidual>
          <timeWeight>0.5</timeWeight>
          <pickID>smi:webservices.ingv.it/fdsnws/event/1/query?pickId=133519741</pickID>
          <earthModelID>smi:webservices.ingv.it/fdsnws/event/1/query?earthModelId=9</earthModelID>
          <takeoffAngle>
            <value>38</value>
          </takeoffAngle>
          <creationInfo>
            <agencyID>INGV </agencyID>
            <author>hew1_mole#MOD_EQASSEMBLE</author>
            <creationTime>2016-08-24T01:37:56</creationTime>
          </creationInfo>
        </arrival>
        <arrival publicID="smi:webservices.ingv.it/fdsnws/event/1/query?arrivalId=504048771">
          <phase>Pn</phase>
          <azimuth>134</azimuth>
          <distance>3.0577</distance>
          <timeResidual>0.4</timeResidual>
          <timeWeight>0.26</timeWeight>
          <pickID>smi:webservices.ingv.it/fdsnws/event/1/query?pickId=133519871</pickID>
          <earthModelID>smi:webservices.ingv.it/fdsnws/event/1/query?earthModelId=9</earthModelID>
          <takeoffAngle>
            <value>38</value>
          </takeoffAngle>
          <creationInfo>
            <agencyID>INGV </agencyID>
            <author>hew1_mole#MOD_EQASSEMBLE</author>
            <creationTime>2016-08-24T01:37:56</creationTime>
          </creationInfo>
        </arrival>
        <arrival publicID="smi:webservices.ingv.it/fdsnws/event/1/query?arrivalId=504048651">
          <phase>Pn</phase>
          <azimuth>339</azimuth>
          <distance>2.8841</distance>
          <timeResidual>0.58</timeResidual>
          <timeWeight>1.12</timeWeight>
          <pickID>smi:webservices.ingv.it/fdsnws/event/1/query?pickId=133519761</pickID>
          <earthModelID>smi:webservices.ingv.it/fdsnws/event/1/query?earthModelId=9</earthModelID>
          <takeoffAngle>
            <value>38</value>
          </takeoffAngle>
          <creationInfo>
            <agencyID>INGV </agencyID>
            <author>hew1_mole#MOD_EQASSEMBLE</author>
            <creationTime>2016-08-24T01:37:56</creationTime>
          </creationInfo>
        </arrival>
